{"type": "FeatureCollection", "features": [ {"type": "Feature", "properties": {"norad_id": 44622, "name": "GAOFEN-10R", "group": "resource", "lat": -14.16496905177348, "lon": 108.77222901682056, "alt_km": 629.7420708809022, "timestamp": "2025-12-09T07:41:32.860652+00:00", "meta": {"OBJECT_NAME": "GAOFEN-10R", "OBJECT_ID": "2019-066A", "EPOCH": "2025-12-08T22:43:19.526592", "MEAN_MOTION": 14.82770916, "ECCENTRICITY": 0.00080421, "INCLINATION": 98.0276, "RA_OF_ASC_NODE": 290.4383, "ARG_OF_PERICENTER": 52.4367, "MEAN_ANOMALY": 307.7575, "EPHEMERIS_TYPE": 0, "CLASSIFICATION_TYPE": "U", "NORAD_CAT_ID": 44622, "ELEMENT_SET_NO": 999, "REV_AT_EPOCH": 33418, "BSTAR": 0.00031185974, "MEAN_MOTION_DOT": 2.467e-05, "MEAN_MOTION_DDOT": 0}, "tle": {"line1": "1 44622U 19066A   25342.94675378  .00002467  00000+0  31186-3 0  9995", "line2": "2 44622  98.0276 290.4383 0008042  52.4367 307.7575 14.82770916334180"}}, "geometry": {"type": "Point", "coordinates": [108.77222901682056, -14.16496905177348]}}, {"type": "Feature", "properties": {"norad_id": 44804, "name": "CARTOSAT-3", "group": "resource", "lat": -82.47846348885933, "lon": 140.08841131182066, "alt_km": 524.8174984327234, "timestamp": "2025-12-09T07:41:32.860663+00:00", "meta": {"OBJECT_NAME": "CARTOSAT-3", "OBJECT_ID": "2019-081A", "EPOCH": "2025-12-08T22:36:32.757984", "MEAN_MOTION": 15.19318148, "ECCENTRICITY": 0.00140246, "INCLINATION": 97.4587, "RA_OF_ASC_NODE": 42.5729, "ARG_OF_PERICENTER": 98.7059, "MEAN_ANOMALY": 261.5765, "EPHEMERIS_TYPE": 0, "CLASSIFICATION_TYPE": "U", "NORAD_CAT_ID": 44804, "ELEMENT_SET_NO": 999, "REV_AT_EPOCH": 33458, "BSTAR": 0.00020663141, "MEAN_MOTION_DOT": 4.305e-05, "MEAN_MOTION_DDOT": 0}, "tle": {"line1": "1 44804U 19081A   25342.94204581  .00004305  00000+0  20663-3 0  9999", "line2": "2 44804  97.4587  42.5729 0014024  98.7059 261.5765 15.19318148334586"}}, "geometry": {"type": "Point", "coordinates": [140.08841131182066, -82.47846348885933]}}, {"type": "Feature", "properties": {"norad_id": 44819, "name": "GAOFEN-12 01", "group": "resource", "lat": 51.86502965794052, "lon": 179.76337948350556, "alt_km": 623.0088408430647, "timestamp": "2025-12-09T07:41:32.860674+00:00", "meta": {"OBJECT_NAME": "GAOFEN-12 01", "OBJECT_ID": "2019-082A", "EPOCH": "2025-12-08T23:00:34.308288", "MEAN_MOTION": 14.8065007, "ECCENTRICITY": 0.0001196, "INCLINATION": 97.8127, "RA_OF_ASC_NODE": 349.339, "ARG_OF_PERICENTER": 258.5738, "MEAN_ANOMALY": 101.534, "EPHEMERIS_TYPE": 0, "CLASSIFICATION_TYPE": "U", "NORAD_CAT_ID": 44819, "ELEMENT_SET_NO": 999, "REV_AT_EPOCH": 32594, "BSTAR": 0.00011178425, "MEAN_MOTION_DOT": 8.08e-06, "MEAN_MOTION_DDOT": 0}, "tle": {"line1": "1 44819U 19082A   25342.95873042  .00000808  00000+0  11178-3 0  9996", "line2": "2 44819  97.8127 349.3390 0001196 258.5738 101.5340 14.80650070325946"}}, "geometry": {"type": "Point", "coordinates": [179.76337948350556, 51.86502965794052]}}, {"type": "Feature", "properties": {"norad_id": 44873, "name": "CSG-1", "group": "resource", "lat": -39.45006931032808, "lon": -21.84905610811072, "alt_km": 629.7616335657813, "timestamp": "2025-12-09T07:41:32.860684+00:00", "meta": {"OBJECT_NAME": "CSG-1", "OBJECT_ID": "2019-092A", "EPOCH": "2025-12-08T22:36:09.404928", "MEAN_MOTION": 14.82155588, "ECCENTRICITY": 0.00014628, "INCLINATION": 97.8812, "RA_OF_ASC_NODE": 164.3231, "ARG_OF_PERICENTER": 86.0584, "MEAN_ANOMALY": 274.0797, "EPHEMERIS_TYPE": 0, "CLASSIFICATION_TYPE": "U", "NORAD_CAT_ID": 44873, "ELEMENT_SET_NO": 999, "REV_AT_EPOCH": 32329, "BSTAR": 0.00013262038, "MEAN_MOTION_DOT": 1.004e-05, "MEAN_MOTION_DDOT": 0}, "tle": {"line1": "1 44873U 19092A   25342.94177552  .00001004  00000+0  13262-3 0  9994", "line2": "2 44873  97.8812 164.3231 0001462  86.0584 274.0797 14.82155588323299"}}, "geometry": {"type": "Point", "coordinates": [-21.84905610811072, -39.45006931032808]}}, {"type": "Feature", "properties": {"norad_id": 46277, "name": "NEMO-HD", "group": "resource", "lat": 24.186904366609493, "lon": 39.19734424825828, "alt_km": 443.8158779925834, "timestamp": "2025-12-09T07:41:32.860694+00:00", "meta": {"OBJECT_NAME": "NEMO-HD", "OBJECT_ID": "2020-061F", "EPOCH": "2025-12-08T23:47:26.422656", "MEAN_MOTION": 15.40205886, "ECCENTRICITY": 0.00021124, "INCLINATION": 97.2211, "RA_OF_ASC_NODE": 42.137, "ARG_OF_PERICENTER": 60.9802, "MEAN_ANOMALY": 299.1656, "EPHEMERIS_TYPE": 0, "CLASSIFICATION_TYPE": "U", "NORAD_CAT_ID": 46277, "ELEMENT_SET_NO": 999, "REV_AT_EPOCH": 29266, "BSTAR": 0.00031689349, "MEAN_MOTION_DOT": 0.00012654, "MEAN_MOTION_DDOT": 0}, "tle": {"line1": "1 46277U 20061F   25342.99127804  .00012654  00000+0  31689-3 0  9998", "line2": "2 46277  97.2211  42.1370 0002112  60.9802 299.1656 15.40205886292660"}}, "geometry": {"type": "Point", "coordinates": [39.19734424825828, 24.186904366609493]}}, {"type": "Feature", "properties": {"norad_id": 46984, "name": "SENTINEL-6A", "group": "resource", "lat": 5.965590489403337, "lon": -13.252801323202155, "alt_km": 1339.417155747201, "timestamp": "2025-12-09T07:41:32.860704+00:00", "meta": {"OBJECT_NAME": "SENTINEL-6A", "OBJECT_ID": "2020-086A", "EPOCH": "2025-12-08T21:25:14.032128", "MEAN_MOTION": 12.80930456, "ECCENTRICITY": 0.00077366, "INCLINATION": 66.0391, "RA_OF_ASC_NODE": 170.2992, "ARG_OF_PERICENTER": 269.2247, "MEAN_ANOMALY": 90.7882, "EPHEMERIS_TYPE": 0, "CLASSIFICATION_TYPE": "U", "NORAD_CAT_ID": 46984, "ELEMENT_SET_NO": 999, "REV_AT_EPOCH": 23595, "BSTAR": 4.143639e-05, "MEAN_MOTION_DOT": -5.1e-07, "MEAN_MOTION_DDOT": 0}, "tle": {"line1": "1 46984U 20086A   25342.89252352 -.00000051  00000+0  41436-4 0  9997", "line2": "2 46984  66.0391 170.2992 0007736 269.2247  90.7882 12.80930456235959"}}, "geometry": {"type": "Point", "coordinates": [-13.252801323202155, 5.965590489403337]}}, {"type": "Feature", "properties": {"norad_id": 48079, "name": "GAOFEN-12 02", "group": "resource", "lat": 40.99316586100019, "lon": 164.3505064355416, "alt_km": 621.9062129923595, "timestamp": "2025-12-09T07:41:32.860715+00:00", "meta": {"OBJECT_NAME": "GAOFEN-12 02", "OBJECT_ID": "2021-026A", "EPOCH": "2025-12-08T22:57:36.798624", "MEAN_MOTION": 14.80667691, "ECCENTRICITY": 0.0003455, "INCLINATION": 97.985, "RA_OF_ASC_NODE": 336.9814, "ARG_OF_PERICENTER": 108.4223, "MEAN_ANOMALY": 251.7365, "EPHEMERIS_TYPE": 0, "CLASSIFICATION_TYPE": "U", "NORAD_CAT_ID": 48079, "ELEMENT_SET_NO": 999, "REV_AT_EPOCH": 25361, "BSTAR": 0.00011650033, "MEAN_MOTION_DOT": 8.42e-06, "MEAN_MOTION_DDOT": 0}, "tle": {"line1": "1 48079U 21026A   25342.95667591  .00000842  00000+0  11650-3 0  9992", "line2": "2 48079  97.9850 336.9814 0003455 108.4223 251.7365 14.80667691253613"}}, "geometry": {"type": "Point", "coordinates": [164.3505064355416, 40.99316586100019]}}, {"type": "Feature", "properties": {"norad_id": 48268, "name": "PLEIADES NEO 3", "group": "resource", "lat": -13.125294366574126, "lon": -126.04347743986283, "alt_km": 628.733586813677, "timestamp": "2025-12-09T07:41:32.860725+00:00", "meta": {"OBJECT_NAME": "PLEIADES NEO 3", "OBJECT_ID": "2021-034A", "EPOCH": "2025-12-08T17:51:26.688096", "MEAN_MOTION": 14.81674889, "ECCENTRICITY": 0.00013213, "INCLINATION": 97.8951, "RA_OF_ASC_NODE": 55.2426, "ARG_OF_PERICENTER": 96.866, "MEAN_ANOMALY": 263.2703, "EPHEMERIS_TYPE": 0, "CLASSIFICATION_TYPE": "U", "NORAD_CAT_ID": 48268, "ELEMENT_SET_NO": 999, "REV_AT_EPOCH": 24945, "BSTAR": 2.6372942e-05, "MEAN_MOTION_DOT": 1.55e-06, "MEAN_MOTION_DDOT": 0}, "tle": {"line1": "1 48268U 21034A   25342.74405889  .00000155  00000+0  26373-4 0  9994", "line2": "2 48268  97.8951  55.2426 0001321  96.8660 263.2703 14.81674889249458"}}, "geometry": {"type": "Point", "coordinates": [-126.04347743986283, -13.125294366574126]}}, {"type": "Feature", "properties": {"norad_id": 49070, "name": "PLEIADES NEO 4", "group": "resource", "lat": 12.924157901337102, "lon": 53.98165506918994, "alt_km": 624.980977056518, "timestamp": "2025-12-09T07:41:32.860736+00:00", "meta": {"OBJECT_NAME": "PLEIADES NEO 4", "OBJECT_ID": "2021-073E", "EPOCH": "2025-12-08T21:54:32.680800", "MEAN_MOTION": 14.81675222, "ECCENTRICITY": 0.0001383, "INCLINATION": 97.8951, "RA_OF_ASC_NODE": 55.4047, "ARG_OF_PERICENTER": 89.4415, "MEAN_ANOMALY": 270.6956, "EPHEMERIS_TYPE": 0, "CLASSIFICATION_TYPE": "U", "NORAD_CAT_ID": 49070, "ELEMENT_SET_NO": 999, "REV_AT_EPOCH": 23319, "BSTAR": 0.00011076466, "MEAN_MOTION_DOT": 8.2e-06, "MEAN_MOTION_DDOT": 0}, "tle": {"line1": "1 49070U 21073E   25342.91287825  .00000820  00000+0  11076-3 0  9998", "line2": "2 49070  97.8951  55.4047 0001383  89.4415 270.6956 14.81675222233193"}}, "geometry": {"type": "Point", "coordinates": [53.98165506918994, 12.924157901337102]}}, {"type": "Feature", "properties": {"norad_id": 49260, "name": "LANDSAT 9", "group": "resource", "lat": -28.09791220097737, "lon": 55.901976945287416, "alt_km": 708.6923505290497, "timestamp": "2025-12-09T07:41:32.860747+00:00", "meta": {"OBJECT_NAME": "LANDSAT 9", "OBJECT_ID": "2021-088A", "EPOCH": "2025-12-08T18:38:17.407968", "MEAN_MOTION": 14.57124879, "ECCENTRICITY": 0.00011148, "INCLINATION": 98.2099, "RA_OF_ASC_NODE": 50.9451, "ARG_OF_PERICENTER": 94.391, "MEAN_ANOMALY": 265.7416, "EPHEMERIS_TYPE": 0, "CLASSIFICATION_TYPE": "U", "NORAD_CAT_ID": 49260, "ELEMENT_SET_NO": 999, "REV_AT_EPOCH": 22327, "BSTAR": 0.00021494061, "MEAN_MOTION_DOT": 9.24e-06, "MEAN_MOTION_DDOT": 0}, "tle": {"line1": "1 49260U 21088A   25342.77659037  .00000924  00000+0  21494-3 0  9997", "line2": "2 49260  98.2099  50.9451 0001114  94.3910 265.7416 14.57124879223272"}}, "geometry": {"type": "Point", "coordinates": [55.901976945287416, -28.09791220097737]}}]}